NORAD_CAT_ID,OBJECT_NAME,OBJECT_TYPE,EPOCH,MEAN_MOTION,ECCENTRICITY,INCLINATION,RA_OF_ASC_NODE,ARG_OF_PERICENTER,MEAN_ANOMALY,BSTAR,MEAN_MOTION_DOT,MEAN_MOTION_DDOT,TLE_LINE0,TLE_LINE1,TLE_LINE2,SEMIMAJOR_AXIS,PERIOD,APOGEE,PERIGEE,DECAYED
51784.0,STARLINK-3632,PAYLOAD,2022-08-24 14:00:01,15.08837294,0.0001495,53.2176,34.094,70.4964,244.5233,-0.0015733,-0.00025238,0.0,0 STARLINK-3632,1 51784U 22017S   22236.58334491 -.00025238  00000-0 -15733-2 0  9992,2 51784  53.2176  34.0940 0001495  70.4964 244.5233 15.08837294  1304,6917.889,95.438,540.788,538.719,0.0
51784.0,STARLINK-3632,PAYLOAD,2022-08-24 16:00:00,15.08833739,0.0001537,53.2175,33.7204,67.4994,340.4169,-0.001562,-0.00025057,0.0,0 STARLINK-3632,1 51784U 22017S   22236.66667824 -.00025057  00000-0 -15620-2 0  9994,2 51784  53.2175  33.7204 0001537  67.4994 340.4169 15.08833739 28727,6917.9,95.438,540.828,538.701,0.0
51784.0,STARLINK-3632,PAYLOAD,2022-08-24 22:00:00,15.08809326,0.0001541999999999,53.2171,32.5989,61.8924,264.7103,0.0021748,0.00034464,0.0,0 STARLINK-3632,1 51784U 22017S   22236.91667824  .00034464  00000-0  21748-2 0  9990,2 51784  53.2171  32.5989 0001542  61.8924 264.7103 15.08809326  1303,6917.974,95.439,540.906,538.7719999999998,0.0
51784.0,STARLINK-3632,PAYLOAD,2022-08-25 06:00:02,15.08808422,0.0001409,53.2176,31.1005,72.125,266.1231,0.0022370999999999,0.00035464,0.0,0 STARLINK-3632,1 51784U 22017S   22237.25002315  .00035464  00000-0  22371-2 0  9990,2 51784  53.2176  31.1005 0001409  72.1250 266.1231 15.08808422 28810,6917.977,95.44,540.817,538.867,0.0
51784.0,STARLINK-3632,PAYLOAD,2022-08-25 14:00:01,15.08849162,0.0001458,53.2178,29.605,70.6973,279.0573,-0.0017395,-0.00027872,0.0,0 STARLINK-3632,1 51784U 22017S   22237.58334491 -.00027872  00000-0 -17395-2 0  9995,2 51784  53.2178  29.6050 0001458  70.6973 279.0573 15.08849162  1306,6917.852,95.437,540.726,538.7090000000002,0.0
51784.0,STARLINK-3632,PAYLOAD,2022-08-25 22:00:00,15.08823419,0.0001481,53.2174,28.1094,63.3512,297.9978,0.0018335,0.00028999,0.0,0 STARLINK-3632,1 51784U 22017S   22237.91667824  .00028999  00000-0  18335-2 0  9995,2 51784  53.2174  28.1094 0001481  63.3512 297.9978 15.08823419  1314,6917.931,95.439,540.821,538.7719999999998,0.0
51784.0,STARLINK-3632,PAYLOAD,2022-08-26 14:00:01,15.08858401,0.0001426999999999,53.2177,25.116,71.3275,313.261,-0.0018920999999999,-0.0003029,0.0,0 STARLINK-3632,1 51784U 22017S   22238.58335648 -.00030290  00000-0 -18921-2 0  9995,2 51784  53.2177  25.1160 0001427  71.3275 313.2610 15.08858401 29014,6917.824000000001,95.436,540.6759999999998,538.702,0.0
51784.0,STARLINK-3632,PAYLOAD,2022-08-26 22:00:00,15.08836289,0.0001441999999999,53.2172,23.6203,64.2832,331.8461,0.0013797,0.00021736,0.0,0 STARLINK-3632,1 51784U 22017S   22238.91667824  .00021736  00000-0  13797-2 0  9995,2 51784  53.2172  23.6203 0001442  64.2832 331.8461 15.08836289  1309,6917.892,95.438,540.754,538.759,0.0
51784.0,STARLINK-3632,PAYLOAD,2022-08-27 14:00:01,15.08866893,0.0001425,53.2176,20.627,71.0889,348.2436,-0.0018543,-0.00029699,0.0,0 STARLINK-3632,1 51784U 22017S   22239.58334491 -.00029699  00000-0 -18543-2 0  9992,2 51784  53.2176  20.6270 0001425  71.0889 348.2436 15.08866893  1301,6917.7980000000025,95.436,540.649,538.677,0.0
51784.0,STARLINK-3632,PAYLOAD,2022-08-27 22:00:00,15.08863784,0.0001473,53.2171,19.1312,64.9083,6.0397,-0.0011909,-0.00019203,0.0,0 STARLINK-3632,1 51784U 22017S   22239.91667824 -.00019203  00000-0 -11909-2 0  9997,2 51784  53.2171  19.1312 0001473  64.9083   6.0397 15.08863784 29217,6917.808000000001,95.436,540.692,538.654,0.0
51784.0,STARLINK-3632,PAYLOAD,2022-08-28 14:00:01,15.08856168,0.0001548,53.2173,16.1381,71.5637,22.5979,-0.0015295,-0.00024558,0.0,0 STARLINK-3632,1 51784U 22017S   22240.58334491 -.00024558  00000-0 -15295-2 0  9994,2 51784  53.2173  16.1381 0001548  71.5637  22.5979 15.08856168  1301,6917.831,95.437,540.7669999999998,538.625,0.0
51784.0,STARLINK-3632,PAYLOAD,2022-08-28 22:00:00,15.08858271,0.0001506,53.2171,14.6421,64.4632,41.2962,-0.0021125999999999,-0.0003376999999999,0.0,0 STARLINK-3632,1 51784U 22017S   22240.91667824 -.00033770  00000-0 -21126-2 0  9996,2 51784  53.2171  14.6421 0001506  64.4632  41.2962 15.08858271  1304,6917.825,95.436,540.731,538.648,0.0
51784.0,STARLINK-3632,PAYLOAD,2022-08-29 08:00:01,15.08814644,0.0001395999999999,53.2174,12.7701,74.8421,135.4146,0.0019089999999999,0.00030203,0.0,0 STARLINK-3632,1 51784U 22017S   22241.33334491  .00030203  00000-0  19090-2 0  9997,2 51784  53.2174  12.7701 0001396  74.8421 135.4146 15.08814644 29435,6917.958000000001,95.439,540.789,538.857,0.0
51784.0,STARLINK-3632,PAYLOAD,2022-08-29 14:00:01,15.08839196,0.0001473,53.2174,11.6492,68.0745,60.8628,-0.0014124,-0.00022695,0.0,0 STARLINK-3632,1 51784U 22017S   22241.58334491 -.00022695  00000-0 -14124-2 0  9995,2 51784  53.2174  11.6492 0001473  68.0745  60.8628 15.08839196  1301,6917.8830000000025,95.438,540.7669999999998,538.729,0.0
51784.0,STARLINK-3632,PAYLOAD,2022-08-29 22:00:00,15.08839358,0.0001476999999999,53.2174,10.1532,62.1395,78.3829,0.0003761,5.703e-05,0.0,0 STARLINK-3632,1 51784U 22017S   22241.91667824  .00005703  00000-0  37610-3 0  9996,2 51784  53.2174  10.1532 0001477  62.1395  78.3829 15.08839358  1307,6917.882,95.438,540.769,538.726,0.0
51784.0,STARLINK-3632,PAYLOAD,2022-08-30 06:00:00,15.08824952,0.0001382,53.2177,8.6552,70.5003,81.6242,0.0029236,0.00046529,0.0,0 STARLINK-3632,1 51784U 22017S   22242.25001157  .00046529  00000-0  29236-2 0  9990,2 51784  53.2177   8.6552 0001382  70.5003  81.6242 15.08824952 29566,6917.926,95.439,540.747,538.835,0.0
51784.0,STARLINK-3632,PAYLOAD,2022-08-30 14:00:01,15.08862836,0.0001484,53.2179,7.1604,65.3903,98.3224,-0.0024389,-0.00038918,0.0,0 STARLINK-3632,1 51784U 22017S   22242.58334491 -.00038918  00000-0 -24389-2 0  9995,2 51784  53.2179   7.1604 0001484  65.3903  98.3224 15.08862836  1304,6917.811,95.436,540.702,538.649,0.0
51784.0,STARLINK-3632,PAYLOAD,2022-08-30 22:00:00,15.08842947,0.0001413,53.2179,5.6642,59.0407,116.2808,-0.0016491,-0.00026439,0.0,0 STARLINK-3632,1 51784U 22017S   22242.91667824 -.00026439  00000-0 -16491-2 0  9991,2 51784  53.2179   5.6642 0001413  59.0407 116.2808 15.08842947  1309,6917.871,95.437,540.714,538.759,0.0
51784.0,STARLINK-3632,PAYLOAD,2022-08-31 14:00:01,15.08845456,0.0001428,53.2182,2.6716,61.8099,136.6919,-0.00089538,-0.00014512,0.0,0 STARLINK-3632,1 51784U 22017S   22243.58334491 -.00014512  00000-0 -89538-3 0  9998,2 51784  53.2182   2.6716 0001428  61.8099 136.6919 15.08845456  1303,6917.864000000001,95.437,540.717,538.741,0.0
51784.0,STARLINK-3632,PAYLOAD,2022-08-31 22:00:00,15.08857157,0.0001462,53.2181,1.1752,59.6049,150.4888,-0.0033228,-0.00052807,0.0,0 STARLINK-3632,1 51784U 22017S   22243.91667824 -.00052807  00000-0 -33228-2 0  9997,2 51784  53.2181   1.1752 0001462  59.6049 150.4888 15.08857157  1304,6917.828,95.436,540.7040000000002,538.682,0.0
51784.0,STARLINK-3632,PAYLOAD,2022-09-01 14:00:01,15.08833396,0.0001509,53.2183,358.1828,62.3721,170.9547,-0.0005528,-9.073e-05,0.0,0 STARLINK-3632,1 51784U 22017S   22244.58335648 -.00009073  00000-0 -55280-3 0  9997,2 51784  53.2183 358.1828 0001509  62.3721 170.9547 15.08833396 29921,6917.901,95.438,540.809,538.722,0.0
51784.0,STARLINK-3632,PAYLOAD,2022-09-01 22:00:00,15.08851785,0.0001463,53.2181,356.6862,60.6319,184.2123,-0.0013580999999999,-0.00021844,0.0,0 STARLINK-3632,1 51784U 22017S   22244.91667824 -.00021844  00000-0 -13581-2 0  9995,2 51784  53.2181 356.6862 0001463  60.6319 184.2123 15.08851785  1305,6917.844,95.437,540.721,538.697,0.0
51784.0,STARLINK-3632,PAYLOAD,2022-09-02 08:00:01,15.08845175,0.0001385,53.2184,354.8147,70.4675,278.8697,0.00087666,0.00013694,0.0,0 STARLINK-3632,1 51784U 22017S   22245.33334491  .00013694  00000-0  87666-3 0  9991,2 51784  53.2184 354.8147 0001385  70.4675 278.8697 15.08845175 30035,6917.865,95.437,540.688,538.771,0.0
51784.0,STARLINK-3632,PAYLOAD,2022-09-02 14:00:01,15.08859343,0.0001509,53.2181,353.6939,63.0335,205.0079,-0.0024335999999999,-0.00038831,0.0,0 STARLINK-3632,1 51784U 22017S   22245.58334491 -.00038831  00000-0 -24336-2 0  9994,2 51784  53.2181 353.6939 0001509  63.0335 205.0079 15.08859343  1303,6917.821,95.436,540.73,538.6419999999998,0.0
51784.0,STARLINK-3632,PAYLOAD,2022-09-02 22:00:01,15.08845568,0.0001519,53.2177,352.19699999999995,63.1168,216.5879,-0.0024643,-0.000393,0.0,0 STARLINK-3632,1 51784U 22017S   22245.91668981 -.00039300  00000-0 -24643-2 0  9998,2 51784  53.2177 352.1970 0001519  63.1168 216.5879 15.08845568  1302,6917.863,95.437,540.779,538.678,0.0
51784.0,STARLINK-3632,PAYLOAD,2022-09-03 00:00:00,15.08836186,0.0001495,53.2178,351.8224,66.3715,306.1714,-0.0014094,-0.00022646,0.0,0 STARLINK-3632,1 51784U 22017S   22246.00001157 -.00022646  00000-0 -14094-2 0  9999,2 51784  53.2178 351.8224 0001495  66.3715 306.1714 15.08836186 30130,6917.892,95.438,540.7909999999998,538.7230000000002,0.0
51784.0,STARLINK-3632,PAYLOAD,2022-09-03 14:00:01,15.08834971,0.0001567,53.2176,349.205,64.4937,238.322,-0.0001228,-2.242e-05,0.0,0 STARLINK-3632,1 51784U 22017S   22246.58334491 -.00002242  00000-0 -12280-3 0  9998,2 51784  53.2176 349.2050 0001567  64.4937 238.3220 15.08834971  1306,6917.896,95.438,540.845,538.677,0.0
51784.0,STARLINK-3632,PAYLOAD,2022-09-03 16:00:00,15.08826469,0.0001571,53.2177,348.8311,63.4028,332.3164,0.0020764,0.000329,0.0,0 STARLINK-3632,1 51784U 22017S   22246.66667824  .00032900  00000-0  20764-2 0  9993,2 51784  53.2177 348.8311 0001571  63.4028 332.3164 15.08826469 30236,6917.922,95.438,540.874,538.7,0.0
51784.0,STARLINK-3632,PAYLOAD,2022-09-03 22:00:00,15.08864125,0.00015,53.2172,347.7079,63.6843,250.7227,-0.0016524999999999,-0.00026509,0.0,0 STARLINK-3632,1 51784U 22017S   22246.91667824 -.00026509  00000-0 -16525-2 0  9991,2 51784  53.2172 347.7079 0001500  63.6843 250.7227 15.08864125  1309,6917.807,95.436,540.7090000000002,538.634,0.0
